LEMUR-2-AMANDA-SVANTE   
1 48269U 21034B   26068.77637527  .00030872  00000+0  11134-2 0  9996
2 48269  97.5829 144.8625 0002703 205.4721 154.6385 15.28469003265849
STARLINK-32804          
1 62846U 25019T   26068.44852348  .00022901  00000+0  83861-3 0  9995
2 62846  43.0083  90.3825 0002822 284.4195  75.6344 15.27599780 62213
